[
    {
        "Altitude(m)": 607897.6097263987,
        "Argument of Periapsis(deg)": 0.0,
        "Eccentricity": 0.0,
        "Inclination(deg)": 60.0,
        "Latitude(deg)": -14.29290684321127,
        "Longitude(deg)": 56.618774745805275,
        "Mean Anomaly(deg)": -16.363600000000062,
        "RAAN(deg)": 165.0,
        "Satellite Name": "Test1 747",
        "Satellite Number": 747,
        "Semi-Major Axis(m)": 6980739.136638005,
        "Time(s)": 0
    },
    {
        "Altitude(m)": 607750.8111142243,
        "Argument of Periapsis(deg)": 0.00010418945913296404,
        "Eccentricity": 0.0,
        "Inclination(deg)": 60.0,
        "Latitude(deg)": -13.758747851661536,
        "Longitude(deg)": 56.90584287531405,
        "Mean Anomaly(deg)": -15.74349385453821,
        "RAAN(deg)": 164.99957995086024,
        "Satellite Name": "Test1 747",
        "Satellite Number": 747,
        "Semi-Major Axis(m)": 6980739.136638005,
        "Time(s)": 10
    },
    {
        "Altitude(m)": 607606.5367933363,
        "Argument of Periapsis(deg)": 0.0002083789182659281,
        "Eccentricity": 0.0,
        "Inclination(deg)": 60.0,
        "Latitude(deg)": -13.224114115743973,
        "Longitude(deg)": 57.191434610187265,
        "Mean Anomaly(deg)": -15.123387709076383,
        "RAAN(deg)": 164.9991599017205,
        "Satellite Name": "Test1 747",
        "Satellite Number": 747,
        "Semi-Major Axis(m)": 6980739.136638005,
        "Time(s)": 20
    },
    {
        "Altitude(m)": 607464.8311358152,
        "Argument of Periapsis(deg)": 0.00031256837739889213,
        "Eccentricity": 0.0,
        "Inclination(deg)": 60.0,
        "Latitude(deg)": -12.689025939884694,
        "Longitude(deg)": 57.4756146296671,
        "Mean Anomaly(deg)": -14.503281563614529,
        "RAAN(deg)": 164.99873985258077,
        "Satellite Name": "Test1 747",
        "Satellite Number": 747,
        "Semi-Major Axis(m)": 6980739.136638005,
        "Time(s)": 30
    },
    {
        "Altitude(m)": 607325.737236655,
        "Argument of Periapsis(deg)": 0.0004167578365318562,
        "Eccentricity": 0.0,
        "Inclination(deg)": 60.0,
        "Latitude(deg)": -12.153503355964974,
        "Longitude(deg)": 57.75844727034512,
        "Mean Anomaly(deg)": -13.883175418152701,
        "RAAN(deg)": 164.99831980344103,
        "Satellite Name": "Test1 747",
        "Satellite Number": 747,
        "Semi-Major Axis(m)": 6980739.136638005,
        "Time(s)": 40
    },
    {
        "Altitude(m)": 607189.2968954357,
        "Argument of Periapsis(deg)": 0.0005209472956648203,
        "Eccentricity": 0.0,
        "Inclination(deg)": 60.0,
        "Latitude(deg)": -11.617566137263681,
        "Longitude(deg)": 58.039995557696265,
        "Mean Anomaly(deg)": -13.263069272690847,
        "RAAN(deg)": 164.99789975430127,
        "Satellite Name": "Test1 747",
        "Satellite Number": 747,
        "Semi-Major Axis(m)": 6980739.136638005,
        "Time(s)": 50
    },
    {
        "Altitude(m)": 607055.5505986486,
        "Argument of Periapsis(deg)": 0.0006251367547977843,
        "Eccentricity": 0.0,
        "Inclination(deg)": 60.0,
        "Latitude(deg)": -11.08123381204277,
        "Longitude(deg)": 58.32032174980925,
        "Mean Anomaly(deg)": -12.642963127229018,
        "RAAN(deg)": 164.99747970516154,
        "Satellite Name": "Test1 747",
        "Satellite Number": 747,
        "Semi-Major Axis(m)": 6980739.136638005,
        "Time(s)": 60
    },
    {
        "Altitude(m)": 606924.5375026157,
        "Argument of Periapsis(deg)": 0.0007293262139307483,
        "Eccentricity": 0.0,
        "Inclination(deg)": 60.0,
        "Latitude(deg)": -10.54452567679605,
        "Longitude(deg)": 58.599487880469695,
        "Mean Anomaly(deg)": -12.022856981767166,
        "RAAN(deg)": 164.99705965602178,
        "Satellite Name": "Test1 747",
        "Satellite Number": 747,
        "Semi-Major Axis(m)": 6980739.136638005,
        "Time(s)": 70
    },
    {
        "Altitude(m)": 606796.2954171237,
        "Argument of Periapsis(deg)": 0.0008335156730637124,
        "Eccentricity": 0.0,
        "Inclination(deg)": 60.0,
        "Latitude(deg)": -10.007460809181893,
        "Longitude(deg)": 58.87755478875165,
        "Mean Anomaly(deg)": -11.402750836305442,
        "RAAN(deg)": 164.99663960688207,
        "Satellite Name": "Test1 747",
        "Satellite Number": 747,
        "Semi-Major Axis(m)": 6980739.136638005,
        "Time(s)": 80
    },
    {
        "Altitude(m)": 606670.8607896325,
        "Argument of Periapsis(deg)": 0.0009377051321966765,
        "Eccentricity": 0.0,
        "Inclination(deg)": 60.0,
        "Latitude(deg)": -9.470058080653354,
        "Longitude(deg)": 59.15458266089241,
        "Mean Anomaly(deg)": -10.782644690843588,
        "RAAN(deg)": 164.9962195577423,
        "Satellite Name": "Test1 747",
        "Satellite Number": 747,
        "Semi-Major Axis(m)": 6980739.136638005,
        "Time(s)": 90
    },
    {
        "Altitude(m)": 606548.2686902077,
        "Argument of Periapsis(deg)": 0.0010418945913296407,
        "Eccentricity": 0.0,
        "Inclination(deg)": 60.0,
        "Latitude(deg)": -8.932336168806586,
        "Longitude(deg)": 59.43063157160686,
        "Mean Anomaly(deg)": -10.16253854538166,
        "RAAN(deg)": 164.99579950860257,
        "Satellite Name": "Test1 747",
        "Satellite Number": 747,
        "Semi-Major Axis(m)": 6980739.136638005,
        "Time(s)": 100
    },
    {
        "Altitude(m)": 606428.5527971019,
        "Argument of Periapsis(deg)": 0.0011460840504626045,
        "Eccentricity": 0.0,
        "Inclination(deg)": 60.0,
        "Latitude(deg)": -8.3943135694647,
        "Longitude(deg)": 59.70576051199747,
        "Mean Anomaly(deg)": -9.542432399919907,
        "RAAN(deg)": 164.9953794594628,
        "Satellite Name": "Test1 747",
        "Satellite Number": 747,
        "Semi-Major Axis(m)": 6980739.136638005,
        "Time(s)": 110
    },
    {
        "Altitude(m)": 606311.7453830272,
        "Argument of Periapsis(deg)": 0.0012502735095955685,
        "Eccentricity": 0.0,
        "Inclination(deg)": 60.0,
        "Latitude(deg)": -7.856008608510216,
        "Longitude(deg)": 59.98002792983634,
        "Mean Anomaly(deg)": -8.92232625445808,
        "RAAN(deg)": 164.99495941032308,
        "Satellite Name": "Test1 747",
        "Satellite Number": 747,
        "Semi-Major Axis(m)": 6980739.136638005,
        "Time(s)": 120
    },
    {
        "Altitude(m)": 606197.8773020863,
        "Argument of Periapsis(deg)": 0.0013544629687285324,
        "Eccentricity": 0.0,
        "Inclination(deg)": 60.0,
        "Latitude(deg)": -7.317439453486188,
        "Longitude(deg)": 60.25349226937319,
        "Mean Anomaly(deg)": -8.302220108996227,
        "RAAN(deg)": 164.99453936118334,
        "Satellite Name": "Test1 747",
        "Satellite Number": 747,
        "Semi-Major Axis(m)": 6980739.136638005,
        "Time(s)": 130
    },
    {
        "Altitude(m)": 606086.9779774359,
        "Argument of Periapsis(deg)": 0.0014586524278614966,
        "Eccentricity": 0.0,
        "Inclination(deg)": 60.0,
        "Latitude(deg)": -6.778624124981093,
        "Longitude(deg)": 60.52621099782883,
        "Mean Anomaly(deg)": -7.6821139635344,
        "RAAN(deg)": 164.9941193120436,
        "Satellite Name": "Test1 747",
        "Satellite Number": 747,
        "Semi-Major Axis(m)": 6980739.136638005,
        "Time(s)": 140
    },
    {
        "Altitude(m)": 605979.0753896467,
        "Argument of Periapsis(deg)": 0.0015628418869944607,
        "Eccentricity": 0.0,
        "Inclination(deg)": 60.0,
        "Latitude(deg)": -6.239580507811024,
        "Longitude(deg)": 60.7982411443465,
        "Mean Anomaly(deg)": -7.062007818072648,
        "RAAN(deg)": 164.99369926290385,
        "Satellite Name": "Test1 747",
        "Satellite Number": 747,
        "Semi-Major Axis(m)": 6980739.136638005,
        "Time(s)": 150
    },
    {
        "Altitude(m)": 605874.1960657302,
        "Argument of Periapsis(deg)": 0.0016670313461274247,
        "Eccentricity": 0.0,
        "Inclination(deg)": 60.0,
        "Latitude(deg)": -5.70032636201571,
        "Longitude(deg)": 61.06963983856005,
        "Mean Anomaly(deg)": -6.441901672610719,
        "RAAN(deg)": 164.9932792137641,
        "Satellite Name": "Test1 747",
        "Satellite Number": 747,
        "Semi-Major Axis(m)": 6980739.136638005,
        "Time(s)": 160
    },
    {
        "Altitude(m)": 605772.3650689238,
        "Argument of Periapsis(deg)": 0.0017712208052603888,
        "Eccentricity": 0.0,
        "Inclination(deg)": 60.0,
        "Latitude(deg)": -5.160879333686146,
        "Longitude(deg)": 61.34046333593211,
        "Mean Anomaly(deg)": -5.821795527148968,
        "RAAN(deg)": 164.99285916462438,
        "Satellite Name": "Test1 747",
        "Satellite Number": 747,
        "Semi-Major Axis(m)": 6980739.136638005,
        "Time(s)": 170
    },
    {
        "Altitude(m)": 605673.605989182,
        "Argument of Periapsis(deg)": 0.001875410264393353,
        "Eccentricity": 0.0,
        "Inclination(deg)": 60.0,
        "Latitude(deg)": -4.62125696563246,
        "Longitude(deg)": 61.61076755564117,
        "Mean Anomaly(deg)": -5.20168938168714,
        "RAAN(deg)": 164.99243911548464,
        "Satellite Name": "Test1 747",
        "Satellite Number": 747,
        "Semi-Major Axis(m)": 6980739.136638005,
        "Time(s)": 180
    },
    {
        "Altitude(m)": 605577.9409343807,
        "Argument of Periapsis(deg)": 0.0019795997235263173,
        "Eccentricity": 0.0,
        "Inclination(deg)": 60.0,
        "Latitude(deg)": -4.081476707911925,
        "Longitude(deg)": 61.880608618170356,
        "Mean Anomaly(deg)": -4.581583236225287,
        "RAAN(deg)": 164.99201906634488,
        "Satellite Name": "Test1 747",
        "Satellite Number": 747,
        "Semi-Major Axis(m)": 6980739.136638005,
        "Time(s)": 190
    }
]